STARLINK-1641           
1 46174U 20057BK  21077.59862677 -.00001118  00000-0 -56181-4 0  9991
2 46174  53.0545 193.8503 0001992 122.2259 237.8923 15.06394102 32188
SKYSAT-C17              
1 46179U 20057BQ  21078.14283099  .00004808  00000-0  73787-4 0  9991
2 46179  52.9979 114.9918 0010537  39.5223 320.6553 15.56346023 32928
SKYSAT-C18              
1 46180U 20057BR  21077.43258940  .00002196  00000-0  34174-4 0  9996
2 46180  52.9945 119.0115 0007032 281.9096  78.1126 15.58993390 32833
2020-058A               
1 46232U 20058A   21078.08865249  .00000727  00000-0  33371-4 0  9999
2 46232  97.4730 131.2077 0011871 262.7493 180.7586 15.23567407 31662
2020-058B               
1 46233U 20058B   21078.13549682  .00001121  00000-0  48717-4 0  9995
2 46233  97.4720 131.4072 0014452 260.0237 124.0995 15.24319378 31673
2020-058C               
1 46234U 20058C   21078.13900324  .00000663  00000-0  30117-4 0  9995
2 46234  97.4713 131.3964 0014394 259.6162 123.2967 15.24220949 31676
SKYSAT-C19              
1 46235U 20057BS  21077.64984863  .00005573  00000-0  84141-4 0  9991
2 46235  52.9950 116.1030 0006902  30.4024 329.7385 15.56457024 32892
SAOCOM 1B               
1 46265U 20059A   21078.08270655  .00000044  00000-0  12123-4 0  9991
2 46265  97.8863 265.3621 0001426  87.2968 272.8398 14.82153011 29673
GNOMES-1                
1 46266U 20059B   21078.01207031  .00000240  00000-0  32191-4 0  9998
2 46266  97.8855 266.6824 0004810 194.0536 166.0547 14.88000995 29737
TYVAK-0172              
1 46267U 20059C   21077.83434488  .00000650  00000-0  76134-4 0  9996
2 46267  97.8726 266.2828 0005757 203.4927 156.6027 14.88394761 29718
RLFL14                  
1 46268U 20060A   21077.85344605  .00001156  00000-0  85436-4 0  9999
2 46268  45.1074 352.1535 0013172 307.9673  52.0012 15.09904351 30181
CAPELLA-2               
1 46269U 20060B   21077.89647519  .00004691  00000-0  29371-3 0  9996
2 46269  45.1062 351.6695 0010567 322.1854  37.8269 15.10641391 30195
NUSAT-6 (HYPATIA)       
1 46272U 20061A   21078.14400342  .00001107  00000-0  51720-4 0  9994
2 46272  97.3751 153.6236 0006089 222.9939 137.0823 15.21855762 29939
ESAIL                   
1 46273U 20061B   21078.19171563  .00001092  00000-0  61076-4 0  9998
2 46273  97.4443 153.6071 0004458 272.5443  87.5280 15.15513642 29842
ION-MK01                
1 46274U 20061C   21078.19412241  .00000630  00000-0  36795-4 0  9997
2 46274  97.4436 153.6111 0004625 269.5605  90.5097 15.15433701 29849
ATHENA                  
1 46275U 20061D   21077.76622718  .00000502  00000-0  29419-4 0  9995
2 46275  97.4392 153.3043 0000889  44.4067 315.7237 15.16166035 29798
UPMSAT-2                
1 46276U 20061E   21077.75111218  .00000680  00000-0  38465-4 0  9991
2 46276  97.4396 153.3294 0001202  34.4472 325.6838 15.16327652 29791
NEMO-HD                 
1 46277U 20061F   21078.11989409  .00000421  00000-0  25138-4 0  9994
2 46277  97.4397 153.6848 0001287  36.8950 171.0004 15.16272598 29843
GHGSAT-C1               
1 46278U 20061G   21078.17528138  .00001084  00000-0  58827-4 0  9996
2 46278  97.4409 153.8282 0003536  42.4414 317.7092 15.16638533 29862
SIMBA                   
1 46279U 20061H   21078.16702763  .00001117  00000-0  72289-4 0  9999
2 46279  97.4952 153.3416 0005266  48.9220 311.2464 15.10157070 29709
TRISAT                  
1 46280U 20061J   21078.16756615  .00000960  00000-0  62772-4 0  9997
2 46280  97.4947 153.3333 0004973  47.8070 312.3581 15.10093329 29717
PICASSO-BEL             
1 46281U 20061K   21077.75065221  .00001642  00000-0  10388-3 0  9991
2 46281  97.4948 152.9649 0004896  48.3892 311.7756 15.10360731 29661
FLOCK 4V-9              
1 46282U 20061L   21078.15238366  .00002010  00000-0  12639-3 0  9990
2 46282  97.4949 153.3562 0004690  49.9267 310.2373 15.10346831 29717
FLOCK 4V-12             
1 46283U 20061M   21078.14713811  .00001534  00000-0  97296-4 0  9996
2 46283  97.4958 153.3746 0004595  49.1768 310.9860 15.10369586 29714
DIDO 3                  
1 46284U 20061N   21077.75540178  .00001021  00000-0  66302-4 0  9992
2 46284  97.4945 152.9563 0004645  47.3603 312.8017 15.10212182 29610
FLOCK 4V-11             
1 46285U 20061P   21077.74997707  .00001065  00000-0  68736-4 0  9997
2 46285  97.4954 152.9821 0004651  49.0888 311.0743 15.10360301 29657
FLOCK 4V-14             
1 46286U 20061Q   21077.74665825  .00001999  00000-0  12550-3 0  9999
2 46286  97.4952 152.9844 0004549  49.1322 311.0301 15.10412711 29654
AMICALSAT               
1 46287U 20061R   21077.74559647  .00001094  00000-0  70631-4 0  9995
2 46287  97.4949 152.9796 0004052  65.7817 294.3835 15.10295366 29659
FLOCK 4V-8              
1 46288U 20061S   21077.93997740  .00001022  00000-0  66012-4 0  9996
2 46288  97.4951 153.1822 0003976  62.8683 297.2952 15.10426701 29593
FLOCK 4V-6              
1 46289U 20061T   21077.73790476  .00001179  00000-0  75515-4 0  9993
2 46289  97.4953 152.9971 0003879  61.9372 298.2249 15.10430218 29650
FLOCK 4V-5              
1 46290U 20061U   21077.73520582  .00001013  00000-0  65389-4 0  9999
2 46290  97.4951 152.9947 0003823  61.9898 298.1718 15.10466388 29652
FLOCK 4V-7              
1 46291U 20061V   21077.86579962  .00001503  00000-0  95038-4 0  9998
2 46291  97.4952 153.1322 0003714  62.4363 297.7244 15.10513943 29565
3CAT-5A                 
1 46292U 20061W   21077.72158716  .00000362  00000-0  25861-4 0  9993
2 46292  97.4946 153.0053 0003798  25.6900 334.4518 15.10396321 29639
3CAT-5B                 
1 46293U 20061X   21077.71175873  .00000455  00000-0  31415-4 0  9991
2 46293  97.4944 153.0138 0003658  23.0875 337.0518 15.10487401 29606
TYVAK-0088              
1 46294U 20061Y   21077.96273443  .00001270  00000-0  80471-4 0  9993
2 46294  97.4947 153.3000 0003525  25.4204 334.7199 15.10718171 29673
TYVAK-0171              
1 46295U 20061Z   21077.75170762  .00001992  00000-0  12345-3 0  9996
2 46295  97.4963 153.1357 0003576  27.2141 332.9276 15.10892134 29589
FLOCK 4V-10             
1 46296U 20061AA  21077.88476473  .00000728  00000-0  47767-4 0  9992
2 46296  97.4958 153.2653 0001673  64.5393 295.6010 15.10704674 29642
FLOCK 4V-13             
1 46297U 20061AB  21077.75035104  .00000737  00000-0  48286-4 0  9998
2 46297  97.4956 153.1359 0001560  64.2745 295.8646 15.10695515 29602
LEMUR-2-ETHANOAKES      
1 46298U 20061AC  21077.90679909  .00001560  00000-0  96290-4 0  9996
2 46298  97.4955 153.3928 0001509  60.6567 299.4814 15.11339999 29622
LEMUR-2-OSCARLATOR      
1 46299U 20061AD  21077.97377246  .00001528  00000-0  94477-4 0  9992
2 46299  97.4957 153.4631 0001429  64.6523 295.4855 15.11318717 29664
SPACEBEE-21             
1 46300U 20061AE  21078.15141937  .00002751  00000-0  16587-3 0  9996
2 46300  97.4959 153.6837 0001191  71.9992 288.1367 15.11583490 29654
SPACEBEE-20             
1 46301U 20061AF  21078.14986788  .00002746  00000-0  16551-3 0  9992
2 46301  97.4963 153.6933 0001164  71.5638 288.5719 15.11601159 29658
SPACEBEE-15             
1 46302U 20061AG  21078.14478996  .00002655  00000-0  15978-3 0  9991
2 46302  97.4960 153.6900 0001235  82.9216 277.2155 15.11680128 29659
SPACEBEE-19             
1 46303U 20061AH  21078.14781593  .00002803  00000-0  16868-3 0  9996
2 46303  97.4961 153.6911 0001160  75.2704 284.8655 15.11631913 29654
SPACEBEE-18             
1 46304U 20061AJ  21078.14800748  .00002569  00000-0  15499-3 0  9999
2 46304  97.4961 153.6896 0001179  78.1473 281.9889 15.11623297 29655
SPACEBEE-10             
1 46305U 20061AK  21077.73801416  .00003036  00000-0  18142-3 0  9995
2 46305  97.4964 153.3179 0001267  83.1320 277.0054 15.11834937 29593
SPACEBEE-17             
1 46306U 20061AL  21077.87966880  .00002613  00000-0  15735-3 0  9993
2 46306  97.4963 153.4372 0001161  78.4481 281.6880 15.11675469 29655
SPACEBEE-11             
1 46307U 20061AM  21077.87335426  .00002663  00000-0  15982-3 0  9999
2 46307  97.4963 153.4446 0001212  81.5763 278.5604 15.11782052 29615
SPACEBEE-16             
1 46308U 20061AN  21078.14335080  .00002582  00000-0  15544-3 0  9991
2 46308  97.4964 153.7003 0001173  80.0905 280.0458 15.11692589 29651
SPACEBEE-12             
1 46309U 20061AP  21078.20572755  .00002869  00000-0  17198-3 0  9996
2 46309  97.4963 153.7671 0001195  81.9056 278.2310 15.11757592 29666
SPACEBEE-13             
1 46310U 20061AQ  21078.14126366  .00002610  00000-0  15690-3 0  9993
2 46310  97.4963 153.7015 0001185  81.8134 278.3230 15.11728384 29697
SPACEBEE-14             
1 46311U 20061AR  21078.14119461  .00002507  00000-0  15092-3 0  9993
2 46311  97.4963 153.7021 0001186  82.1037 278.0328 15.11718984 29681
TTU100                  
1 46312U 20061AS  21078.10279471  .00001134  00000-0  71158-4 0  9999
2 46312  97.4954 153.6175 0002399 343.7036 103.6576 15.11291039 29688
FLOCK 4V-1              
1 46313U 20061AT  21077.76313082  .00001002  00000-0  63432-4 0  9998
2 46313  97.4956 153.2690 0002217 349.2489  10.8693 15.11205700 29624
FLOCK 4V-4              
1 46314U 20061AU  21078.15885209  .00000894  00000-0  57072-4 0  9999
2 46314  97.4956 153.6593 0002196 338.0800  22.0336 15.11164639 29736
LEMUR-2-SCHMIDTFALL     
1 46315U 20061AV  21077.85932179  .00001504  00000-0  92004-4 0  9998
2 46315  97.4961 153.4666 0000898 338.9795  21.1398 15.11723102 29690
LEMUR-2-DJUPROERA       
1 46316U 20061AW  21078.18583405  .00001686  00000-0  10255-3 0  9998
2 46316  97.4955 153.7868 0001029 330.0600  30.0571 15.11775881 29745
LEMUR-2-SQUAREJAWS      
1 46317U 20061AX  21077.72302078  .00001706  00000-0  10380-3 0  9995
2 46317  97.4959 153.3349 0000948 332.8874  27.2307 15.11752295 29684
LEMUR-2-URSA-AVION      
1 46318U 20061AY  21077.91792972  .00001558  00000-0  95030-4 0  9994
2 46318  97.4957 153.5340 0000974 319.2082  40.9075 15.11788554 29710
